{"type": "FeatureCollection", "features": [ {"type": "Feature", "properties": {"norad_id": 34141, "name": "COSMOS 2251 DEB", "group": "cosmos-2251-debris", "lat": 68.12469330864667, "lon": 59.480304970219386, "alt_km": 690.2894605862193, "timestamp": "2025-12-20T16:47:36.678618+00:00", "meta": {"OBJECT_NAME": "COSMOS 2251 DEB", "OBJECT_ID": "1993-036LN", "EPOCH": "2025-12-20T12:10:11.273088", "MEAN_MOTION": 14.49312266, "ECCENTRICITY": 0.0046575, "INCLINATION": 74.0109, "RA_OF_ASC_NODE": 14.2689, "ARG_OF_PERICENTER": 97.7438, "MEAN_ANOMALY": 52.5935, "EPHEMERIS_TYPE": 0, "CLASSIFICATION_TYPE": "U", "NORAD_CAT_ID": 34141, "ELEMENT_SET_NO": 999, "REV_AT_EPOCH": 87806, "BSTAR": 0.00087591, "MEAN_MOTION_DOT": 3.364e-05, "MEAN_MOTION_DDOT": 0}, "tle": {"line1": "1 34141U 93036LN  25354.50707492  .00003364  00000+0  87591-3 0  9995", "line2": "2 34141  74.0109  14.2689 0046575  97.7438  52.5935 14.49312266878067"}}, "geometry": {"type": "Point", "coordinates": [59.480304970219386, 68.12469330864667]}}, {"type": "Feature", "properties": {"norad_id": 34270, "name": "COSMOS 2251 DEB", "group": "cosmos-2251-debris", "lat": 49.469334314414596, "lon": 91.69454715614785, "alt_km": 647.9570690786959, "timestamp": "2025-12-20T16:47:36.678628+00:00", "meta": {"OBJECT_NAME": "COSMOS 2251 DEB", "OBJECT_ID": "1993-036LQ", "EPOCH": "2025-12-20T06:23:06.802080", "MEAN_MOTION": 14.65223405, "ECCENTRICITY": 0.0047864, "INCLINATION": 74.0117, "RA_OF_ASC_NODE": 292.1229, "ARG_OF_PERICENTER": 82.6515, "MEAN_ANOMALY": 278.0089, "EPHEMERIS_TYPE": 0, "CLASSIFICATION_TYPE": "U", "NORAD_CAT_ID": 34270, "ELEMENT_SET_NO": 999, "REV_AT_EPOCH": 89206, "BSTAR": 0.00050309, "MEAN_MOTION_DOT": 2.725e-05, "MEAN_MOTION_DDOT": 0}, "tle": {"line1": "1 34270U 93036LQ  25354.26605095  .00002725  00000+0  50309-3 0  9994", "line2": "2 34270  74.0117 292.1229 0047864  82.6515 278.0089 14.65223405892062"}}, "geometry": {"type": "Point", "coordinates": [91.69454715614785, 49.469334314414596]}}, {"type": "Feature", "properties": {"norad_id": 34271, "name": "COSMOS 2251 DEB", "group": "cosmos-2251-debris", "lat": -51.86981134389686, "lon": 25.2730377129082, "alt_km": 651.8135385105315, "timestamp": "2025-12-20T16:47:36.678639+00:00", "meta": {"OBJECT_NAME": "COSMOS 2251 DEB", "OBJECT_ID": "1993-036LR", "EPOCH": "2025-12-20T06:44:08.466720", "MEAN_MOTION": 14.70908358, "ECCENTRICITY": 0.0018408, "INCLINATION": 74.019, "RA_OF_ASC_NODE": 184.6741, "ARG_OF_PERICENTER": 238.1631, "MEAN_ANOMALY": 298.4774, "EPHEMERIS_TYPE": 0, "CLASSIFICATION_TYPE": "U", "NORAD_CAT_ID": 34271, "ELEMENT_SET_NO": 999, "REV_AT_EPOCH": 88345, "BSTAR": 0.0011955, "MEAN_MOTION_DOT": 7.314e-05, "MEAN_MOTION_DDOT": 0}, "tle": {"line1": "1 34271U 93036LR  25354.28065355  .00007314  00000+0  11955-2 0  9998", "line2": "2 34271  74.0190 184.6741 0018408 238.1631 298.4774 14.70908358883450"}}, "geometry": {"type": "Point", "coordinates": [25.2730377129082, -51.86981134389686]}}, {"type": "Feature", "properties": {"norad_id": 34273, "name": "COSMOS 2251 DEB", "group": "cosmos-2251-debris", "lat": -19.187211992914698, "lon": 66.49148705899076, "alt_km": 701.4164207052709, "timestamp": "2025-12-20T16:47:36.678649+00:00", "meta": {"OBJECT_NAME": "COSMOS 2251 DEB", "OBJECT_ID": "1993-036LT", "EPOCH": "2025-12-20T05:31:38.097984", "MEAN_MOTION": 14.61288148, "ECCENTRICITY": 0.0013706, "INCLINATION": 74.0364, "RA_OF_ASC_NODE": 73.1054, "ARG_OF_PERICENTER": 199.0057, "MEAN_ANOMALY": 192.5449, "EPHEMERIS_TYPE": 0, "CLASSIFICATION_TYPE": "U", "NORAD_CAT_ID": 34273, "ELEMENT_SET_NO": 999, "REV_AT_EPOCH": 88731, "BSTAR": 0.00058813, "MEAN_MOTION_DOT": 2.878e-05, "MEAN_MOTION_DDOT": 0}, "tle": {"line1": "1 34273U 93036LT  25354.23030206  .00002878  00000+0  58813-3 0  9997", "line2": "2 34273  74.0364  73.1054 0013706 199.0057 192.5449 14.61288148887317"}}, "geometry": {"type": "Point", "coordinates": [66.49148705899076, -19.187211992914698]}}, {"type": "Feature", "properties": {"norad_id": 34274, "name": "COSMOS 2251 DEB", "group": "cosmos-2251-debris", "lat": 15.021337547873788, "lon": -131.1826765210653, "alt_km": 665.9944497010238, "timestamp": "2025-12-20T16:47:36.678659+00:00", "meta": {"OBJECT_NAME": "COSMOS 2251 DEB", "OBJECT_ID": "1993-036LU", "EPOCH": "2025-12-19T14:30:34.816032", "MEAN_MOTION": 14.64857632, "ECCENTRICITY": 0.0021678, "INCLINATION": 74.0044, "RA_OF_ASC_NODE": 55.3413, "ARG_OF_PERICENTER": 204.985, "MEAN_ANOMALY": 306.4654, "EPHEMERIS_TYPE": 0, "CLASSIFICATION_TYPE": "U", "NORAD_CAT_ID": 34274, "ELEMENT_SET_NO": 999, "REV_AT_EPOCH": 88776, "BSTAR": 0.00070677, "MEAN_MOTION_DOT": 3.759e-05, "MEAN_MOTION_DDOT": 0}, "tle": {"line1": "1 34274U 93036LU  25353.60456963  .00003759  00000+0  70677-3 0  9991", "line2": "2 34274  74.0044  55.3413 0021678 204.9850 306.4654 14.64857632887764"}}, "geometry": {"type": "Point", "coordinates": [-131.1826765210653, 15.021337547873788]}}, {"type": "Feature", "properties": {"norad_id": 34276, "name": "COSMOS 2251 DEB", "group": "cosmos-2251-debris", "lat": -60.834691119207186, "lon": -78.92659196542668, "alt_km": 694.9444209913772, "timestamp": "2025-12-20T16:47:36.678669+00:00", "meta": {"OBJECT_NAME": "COSMOS 2251 DEB", "OBJECT_ID": "1993-036LW", "EPOCH": "2025-12-20T12:25:42.857760", "MEAN_MOTION": 14.57275704, "ECCENTRICITY": 0.0022334, "INCLINATION": 74.0237, "RA_OF_ASC_NODE": 70.5327, "ARG_OF_PERICENTER": 216.6141, "MEAN_ANOMALY": 154.7368, "EPHEMERIS_TYPE": 0, "CLASSIFICATION_TYPE": "U", "NORAD_CAT_ID": 34276, "ELEMENT_SET_NO": 999, "REV_AT_EPOCH": 88706, "BSTAR": 0.000494, "MEAN_MOTION_DOT": 2.213e-05, "MEAN_MOTION_DDOT": 0}, "tle": {"line1": "1 34276U 93036LW  25354.51785715  .00002213  00000+0  49400-3 0  9998", "line2": "2 34276  74.0237  70.5327 0022334 216.6141 154.7368 14.57275704887061"}}, "geometry": {"type": "Point", "coordinates": [-78.92659196542668, -60.834691119207186]}}, {"type": "Feature", "properties": {"norad_id": 34297, "name": "COSMOS 2251 DEB", "group": "cosmos-2251-debris", "lat": 25.77005541139961, "lon": -82.44727103051711, "alt_km": 760.318550443174, "timestamp": "2025-12-20T16:47:36.678679+00:00", "meta": {"OBJECT_NAME": "COSMOS 2251 DEB", "OBJECT_ID": "1993-036MT", "EPOCH": "2025-12-20T12:28:43.348224", "MEAN_MOTION": 14.36635417, "ECCENTRICITY": 0.0017579, "INCLINATION": 74.0488, "RA_OF_ASC_NODE": 269.9461, "ARG_OF_PERICENTER": 337.3921, "MEAN_ANOMALY": 199.9888, "EPHEMERIS_TYPE": 0, "CLASSIFICATION_TYPE": "U", "NORAD_CAT_ID": 34297, "ELEMENT_SET_NO": 999, "REV_AT_EPOCH": 88176, "BSTAR": 9.9684e-05, "MEAN_MOTION_DOT": 2.68e-06, "MEAN_MOTION_DDOT": 0}, "tle": {"line1": "1 34297U 93036MT  25354.51994616  .00000268  00000+0  99684-4 0  9991", "line2": "2 34297  74.0488 269.9461 0017579 337.3921 199.9888 14.36635417881764"}}, "geometry": {"type": "Point", "coordinates": [-82.44727103051711, 25.77005541139961]}}, {"type": "Feature", "properties": {"norad_id": 34299, "name": "COSMOS 2251 DEB", "group": "cosmos-2251-debris", "lat": 48.8442222455612, "lon": 116.93501098232034, "alt_km": 279.0724039664492, "timestamp": "2025-12-20T16:47:36.678689+00:00", "meta": {"OBJECT_NAME": "COSMOS 2251 DEB", "OBJECT_ID": "1993-036MV", "EPOCH": "2025-12-20T07:13:01.731072", "MEAN_MOTION": 15.9266197, "ECCENTRICITY": 0.0011331, "INCLINATION": 73.9688, "RA_OF_ASC_NODE": 317.0788, "ARG_OF_PERICENTER": 92.7548, "MEAN_ANOMALY": 267.4984, "EPHEMERIS_TYPE": 0, "CLASSIFICATION_TYPE": "U", "NORAD_CAT_ID": 34299, "ELEMENT_SET_NO": 999, "REV_AT_EPOCH": 89130, "BSTAR": 0.0063116, "MEAN_MOTION_DOT": 0.02097509, "MEAN_MOTION_DDOT": 0.0026285}, "tle": {"line1": "1 34299U 93036MV  25354.30071448  .02097509  26285-2  63116-2 0  9990", "line2": "2 34299  73.9688 317.0788 0011331  92.7548 267.4984 15.92661970891305"}}, "geometry": {"type": "Point", "coordinates": [116.93501098232034, 48.8442222455612]}}, {"type": "Feature", "properties": {"norad_id": 34301, "name": "COSMOS 2251 DEB", "group": "cosmos-2251-debris", "lat": -73.99137568431951, "lon": 62.064783325719624, "alt_km": 616.8510254645134, "timestamp": "2025-12-20T16:47:36.678699+00:00", "meta": {"OBJECT_NAME": "COSMOS 2251 DEB", "OBJECT_ID": "1993-036MX", "EPOCH": "2025-12-20T10:52:13.318752", "MEAN_MOTION": 14.84891604, "ECCENTRICITY": 0.0010592, "INCLINATION": 74.0049, "RA_OF_ASC_NODE": 151.3677, "ARG_OF_PERICENTER": 213.5514, "MEAN_ANOMALY": 177.9379, "EPHEMERIS_TYPE": 0, "CLASSIFICATION_TYPE": "U", "NORAD_CAT_ID": 34301, "ELEMENT_SET_NO": 999, "REV_AT_EPOCH": 88515, "BSTAR": 0.0020388, "MEAN_MOTION_DOT": 0.00017373, "MEAN_MOTION_DDOT": 0}, "tle": {"line1": "1 34301U 93036MX  25354.45293193  .00017373  00000+0  20388-2 0  9990", "line2": "2 34301  74.0049 151.3677 0010592 213.5514 177.9379 14.84891604885150"}}, "geometry": {"type": "Point", "coordinates": [62.064783325719624, -73.99137568431951]}}, {"type": "Feature", "properties": {"norad_id": 34302, "name": "COSMOS 2251 DEB", "group": "cosmos-2251-debris", "lat": 38.88750866696673, "lon": -84.2066318128156, "alt_km": 813.8173890559992, "timestamp": "2025-12-20T16:47:36.678709+00:00", "meta": {"OBJECT_NAME": "COSMOS 2251 DEB", "OBJECT_ID": "1993-036MY", "EPOCH": "2025-12-20T09:46:23.609280", "MEAN_MOTION": 14.39357272, "ECCENTRICITY": 0.0079209, "INCLINATION": 74.178, "RA_OF_ASC_NODE": 109.5496, "ARG_OF_PERICENTER": 322.6403, "MEAN_ANOMALY": 101.4092, "EPHEMERIS_TYPE": 0, "CLASSIFICATION_TYPE": "U", "NORAD_CAT_ID": 34302, "ELEMENT_SET_NO": 999, "REV_AT_EPOCH": 87831, "BSTAR": 0.00042677, "MEAN_MOTION_DOT": 1.35e-05, "MEAN_MOTION_DDOT": 0}, "tle": {"line1": "1 34302U 93036MY  25354.40721770  .00001350  00000+0  42677-3 0  9997", "line2": "2 34302  74.1780 109.5496 0079209 322.6403 101.4092 14.39357272878319"}}, "geometry": {"type": "Point", "coordinates": [-84.2066318128156, 38.88750866696673]}}]}